NORAD_CAT_ID,OBJECT_NAME,OBJECT_TYPE,EPOCH,MEAN_MOTION,ECCENTRICITY,INCLINATION,RA_OF_ASC_NODE,ARG_OF_PERICENTER,MEAN_ANOMALY,BSTAR,MEAN_MOTION_DOT,MEAN_MOTION_DDOT,TLE_LINE0,TLE_LINE1,TLE_LINE2,SEMIMAJOR_AXIS,PERIOD,APOGEE,PERIGEE,DECAYED
52456.0,STARLINK-3896,PAYLOAD,2024-06-13 09:11:51,15.08838465,0.0001454,53.2185,36.6329,105.9959,254.1193,2.1405e-06,-2.54e-06,0.0,0 STARLINK-3896,1 52456U 22049F   24165.38324026 -.00000254  00000-0  21405-5 0  9994,2 52456  53.2185  36.6329 0001454 105.9959 254.1193 15.08838465116358,6917.885,95.438,540.756,538.744,0.0
52456.0,STARLINK-3896,PAYLOAD,2024-06-13 21:54:56,15.08849687,0.0001889,53.2171,34.2515,150.0648,210.0453,-5.9449e-05,-1.234e-05,0.0,0 STARLINK-3896,1 52456U 22049F   24165.91315134 -.00001234  00000-0 -59449-4 0  9991,2 52456  53.2171  34.2515 0001889 150.0648 210.0453 15.08849687116439,6917.851,95.437,541.023,538.409,0.0
52456.0,STARLINK-3896,PAYLOAD,2024-06-14 21:45:44,15.08832907,0.0001312,53.2172,29.7979,84.5796,275.5346,7.3072e-05,8.75e-06,0.0,0 STARLINK-3896,1 52456U 22049F   24166.90676388  .00000875  00000-0  73072-4 0  9998,2 52456  53.2172  29.7979 0001312  84.5796 275.5346 15.08832907116589,6917.902,95.438,540.675,538.859,0.0
52456.0,STARLINK-3896,PAYLOAD,2024-06-15 13:39:35,15.08836078,0.0001188,53.2175,26.8235,85.6425,274.4703,4.1449e-05,3.72e-06,0.0,0 STARLINK-3896,1 52456U 22049F   24167.56916424  .00000372  00000-0  41449-4 0  9994,2 52456  53.2175  26.8235 0001188  85.6425 274.4703 15.08836078116686,6917.892,95.438,540.579,538.936,0.0
52456.0,STARLINK-3896,PAYLOAD,2024-06-15 21:36:30,15.08844594,0.0001269,53.2177,25.3373,83.3773,276.7363,6.6641e-05,7.73e-06,0.0,0 STARLINK-3896,1 52456U 22049F   24167.90035827  .00000773  00000-0  66641-4 0  9997,2 52456  53.2177  25.3373 0001269  83.3773 276.7363 15.08844594116731,6917.866,95.437,540.609,538.853,0.0
52456.0,STARLINK-3896,PAYLOAD,2024-06-16 07:08:49,15.08846711,0.0001288,53.2182,23.5529,88.1238,271.9902,3.4526e-05,2.62e-06,0.0,0 STARLINK-3896,1 52456U 22049F   24168.29779630  .00000262  00000-0  34526-4 0  9997,2 52456  53.2182  23.5529 0001288  88.1238 271.9902 15.08846711116795,6917.86,95.437,540.616,538.834,0.0
52456.0,STARLINK-3896,PAYLOAD,2024-06-16 21:27:18,15.08835537,0.0001416,53.2191,20.8797,98.5021,261.6131,1.7034e-05,-1.7e-07,0.0,0 STARLINK-3896,1 52456U 22049F   24168.89396610 -.00000017  00000-0  17034-4 0  9990,2 52456  53.2191  20.8797 0001416  98.5021 261.6131 15.08835537116884,6917.894,95.438,540.739,538.779,0.0
52456.0,STARLINK-3896,PAYLOAD,2024-06-17 21:18:05,15.08842716,0.0001601,53.2193,16.4187,90.6618,269.4558,-2.796e-05,-7.33e-06,0.0,0 STARLINK-3896,1 52456U 22049F   24169.88756459 -.00000733  00000-0 -27960-4 0  9996,2 52456  53.2193  16.4187 0001601  90.6618 269.4558 15.08842716117035,6917.872,95.437,540.845,538.63,0.0
52456.0,STARLINK-3896,PAYLOAD,2024-06-17 22:53:28,15.08839463,0.0001197,53.2181,16.1191,83.1072,277.0057,2.1092e-05,4.8e-07,0.0,0 STARLINK-3896,1 52456U 22049F   24169.95380467  .00000048  00000-0  21092-4 0  9993,2 52456  53.2181  16.1191 0001197  83.1072 277.0057 15.08839463117208,6917.882,95.438,540.575,538.919,0.0
52456.0,STARLINK-3896,PAYLOAD,2024-06-18 06:50:24,15.08843422,0.0001226,53.2181,14.6323,87.2089,272.9044,-2.0953e-05,-6.21e-06,0.0,0 STARLINK-3896,1 52456U 22049F   24170.28500295 -.00000621  00000-0 -20953-4 0  9998,2 52456  53.2181  14.6323 0001226  87.2089 272.9044 15.08843422117091,6917.87,95.437,540.583,538.887,0.0
52456.0,STARLINK-3896,PAYLOAD,2024-06-18 19:33:30,15.08827211,0.0001237,53.2182,12.2519,80.7127,279.4005,-9.9718e-07,-3.04e-06,0.0,0 STARLINK-3896,1 52456U 22049F   24170.81493461 -.00000304  00000-0 -99718-6 0  9998,2 52456  53.2182  12.2519 0001237  80.7127 279.4005 15.08827211117330,6917.919,95.438,540.64,538.929,0.0
52456.0,STARLINK-3896,PAYLOAD,2024-06-18 21:08:53,15.08828737,0.0001206,53.2179,11.9558,84.6622,275.4508,-4.1669e-05,-9.51e-06,0.0,0 STARLINK-3896,1 52456U 22049F   24170.88117560 -.00000951  00000-0 -41669-4 0  9996,2 52456  53.2179  11.9558 0001206  84.6622 275.4508 15.08828737117185,6917.915,95.438,540.614,538.946,0.0
52456.0,STARLINK-3896,PAYLOAD,2024-06-19 06:41:12,15.08833553,0.0001217,53.2184,10.1716,84.6752,275.4379,1.1378e-05,-1.07e-06,0.0,0 STARLINK-3896,1 52456U 22049F   24171.27861265 -.00000107  00000-0  11378-4 0  9994,2 52456  53.2184  10.1716 0001217  84.6752 275.4379 15.08833553117407,6917.9,95.438,540.607,538.923,0.0
52456.0,STARLINK-3896,PAYLOAD,2024-06-19 19:24:16,15.08845505,0.0001162,53.2179,7.7914,85.0825,275.03,6.0539e-05,6.76e-06,0.0,0 STARLINK-3896,1 52456U 22049F   24171.80852390  .00000676  00000-0  60539-4 0  9995,2 52456  53.2179   7.7914 0001162  85.0825 275.0300 15.08845505117486,6917.864,95.437,540.532,538.925,0.0
52456.0,STARLINK-3896,PAYLOAD,2024-06-19 22:35:02,15.0884968,0.0001173,53.2181,7.1959,88.432,271.6806,9.4498e-05,1.217e-05,0.0,0 STARLINK-3896,1 52456U 22049F   24171.94099933  .00001217  00000-0  94498-4 0  9999,2 52456  53.2181   7.1959 0001173  88.4320 271.6806 15.08849680117347,6917.851,95.437,540.527,538.904,0.0
52456.0,STARLINK-3896,PAYLOAD,2024-06-20 12:53:31,15.08835707,0.000129,53.2199,4.519,90.5511,269.5629,0.00010914,1.449e-05,0.0,0 STARLINK-3896,1 52456U 22049F   24172.53716691  .00001449  00000-0  10914-3 0  9999,2 52456  53.2199   4.5190 0001290  90.5511 269.5629 15.08835707117434,6917.894,95.438,540.651,538.866,0.0
52456.0,STARLINK-3896,PAYLOAD,2024-06-20 19:15:03,15.08839153,0.0001172,53.218,3.3297,98.3698,261.7427,0.00012738,1.74e-05,0.0,0 STARLINK-3896,1 52456U 22049F   24172.80212312  .00001740  00000-0  12738-3 0  9990,2 52456  53.2180   3.3297 0001172  98.3698 261.7427 15.08839153117473,6917.883,95.438,540.559,538.937,0.0
52456.0,STARLINK-3896,PAYLOAD,2024-06-21 17:30:27,15.0883959,0.0001309,53.2182,359.1638,108.3391,251.7743,-4.5151e-05,-1.006e-05,0.0,0 STARLINK-3896,1 52456U 22049F   24173.72948989 -.00001006  00000-0 -45151-4 0  9991,2 52456  53.2182 359.1638 0001309 108.3391 251.7743 15.08839590117778,6917.882,95.438,540.652,538.841,0.0
52456.0,STARLINK-3896,PAYLOAD,2024-06-21 22:16:37,15.08840863,0.0001247,53.2184,358.273,100.2627,259.8506,-8.1989e-05,-1.593e-05,0.0,0 STARLINK-3896,1 52456U 22049F   24173.92821059 -.00001593  00000-0 -81989-4 0  9991,2 52456  53.2184 358.2730 0001247 100.2627 259.8506 15.08840863117644,6917.878,95.438,540.605,538.88,0.0
52456.0,STARLINK-3896,PAYLOAD,2024-06-22 12:35:05,15.08837459,0.0001149,53.2176,355.5979,99.798,260.3142,-3.2927e-05,-8.12e-06,0.0,0 STARLINK-3896,1 52456U 22049F   24174.52437180 -.00000812  00000-0 -32927-4 0  9997,2 52456  53.2176 355.5979 0001149  99.7980 260.3142 15.08837459117735,6917.888,95.438,540.548,538.958,0.0
52456.0,STARLINK-3896,PAYLOAD,2024-06-22 17:21:14,15.08841224,0.000115,53.2175,354.7062,96.52,263.5923,8.1508e-06,-1.58e-06,0.0,0 STARLINK-3896,1 52456U 22049F   24174.72308832 -.00000158  00000-0  81508-5 0  9992,2 52456  53.2175 354.7062 0001150  96.5200 263.5923 15.08841224117760,6917.877,95.437,540.537,538.946,0.0
52456.0,STARLINK-3896,PAYLOAD,2024-06-23 10:50:29,15.08834994,0.0001271,53.2176,351.4359,97.4114,262.7023,4.259e-05,3.9e-06,0.0,0 STARLINK-3896,1 52456U 22049F   24175.45173233  .00000390  00000-0  42590-4 0  9992,2 52456  53.2176 351.4359 0001271  97.4114 262.7023 15.08834994118031,6917.896,95.438,540.64,538.881,0.0
52456.0,STARLINK-3896,PAYLOAD,2024-06-23 21:58:11,15.08838575,0.0001219,53.2177,349.3538,90.3919,269.7213,6.6387e-05,7.69e-06,0.0,0 STARLINK-3896,1 52456U 22049F   24175.91541042  .00000769  00000-0  66387-4 0  9990,2 52456  53.2177 349.3538 0001219  90.3919 269.7213 15.08838575117940,6917.885,95.438,540.593,538.906,0.0
52456.0,STARLINK-3896,PAYLOAD,2024-06-24 12:16:39,15.0883882,0.0001191,53.2177,346.6775,91.2032,268.9096,1.1809e-05,-1e-06,0.0,0 STARLINK-3896,1 52456U 22049F   24176.51157310 -.00000100  00000-0  11809-4 0  9997,2 52456  53.2177 346.6775 0001191  91.2032 268.9096 15.08838820118199,6917.884,95.438,540.573,538.925,0.0
52456.0,STARLINK-3896,PAYLOAD,2024-06-24 18:38:12,15.08844458,0.0001272,53.218,345.4878,84.7279,275.3858,5.7775e-05,6.32e-06,0.0,0 STARLINK-3896,1 52456U 22049F   24176.77652833  .00000632  00000-0  57775-4 0  9996,2 52456  53.2180 345.4878 0001272  84.7279 275.3858 15.08844458118073,6917.867,95.437,540.612,538.852,0.0
52456.0,STARLINK-3896,PAYLOAD,2024-06-25 18:28:59,15.0881213,0.0001371,53.2191,341.0256,81.0894,279.0253,0.00044327,6.768e-05,0.0,0 STARLINK-3896,1 52456U 22049F   24177.77013733  .00006768  00000-0  44327-3 0  9991,2 52456  53.2191 341.0256 0001371  81.0894 279.0253 15.08812130118386,6917.966,95.439,540.779,538.882,0.0
52456.0,STARLINK-3896,PAYLOAD,2024-06-26 04:01:18,15.08844472,0.0001357,53.2185,339.2455,75.2748,284.8395,-8.2419e-06,-4.19e-06,0.0,0 STARLINK-3896,1 52456U 22049F   24178.16757042 -.00000419  00000-0 -82419-5 0  9998,2 52456  53.2185 339.2455 0001357  75.2748 284.8395 15.08844472118448,6917.867,95.437,540.67,538.793,0.0
52456.0,STARLINK-3896,PAYLOAD,2024-06-27 16:35:10,15.08840972,0.0001329,53.2179,332.4021,97.3741,262.7402,-5.267e-05,-1.126e-05,0.0,0 STARLINK-3896,1 52456U 22049F   24179.69109255 -.00001126  00000-0 -52670-4 0  9995,2 52456  53.2179 332.4021 0001329  97.3741 262.7402 15.08840972118672,6917.877,95.437,540.662,538.823,0.0
52456.0,STARLINK-3896,PAYLOAD,2024-06-28 13:15:11,15.08783503,0.0001157,53.2176,328.5376,110.4366,249.675,0.00087769,0.00013687,0.0,0 STARLINK-3896,1 52456U 22049F   24180.55222152  .00013687  00000-0  87769-3 0  9993,2 52456  53.2176 328.5376 0001157 110.4366 249.6750 15.08783503118808,6918.053,95.441,540.719,539.118,0.0
52456.0,STARLINK-3896,PAYLOAD,2024-06-28 14:50:33,15.08845707,0.0001517,53.2195,328.2434,77.2342,282.882,6.2301e-05,7.04e-06,0.0,0 STARLINK-3896,1 52456U 22049F   24180.61844635  .00000704  00000-0  62301-4 0  9998,2 52456  53.2195 328.2434 0001517  77.2342 282.8820 15.08845707118650,6917.863,95.437,540.777,538.679,0.0
